start=new Date('2021-09-24T00:00:00.000Z').valueOf();
sats=[{"FILE":"3125077","CLASSIFICATION_TYPE":"U","EPOCH":"2021-09-23T11:17:52.906272","PERIAPSIS":"545.808","LAUNCH_DATE":"2020-06-04","CENTER_NAME":"EARTH","MEAN_MOTION":"15.06395506","SEMIMAJOR_AXIS":"6925.362","TLE_LINE2":"2 45660  53.0558 175.9886 0002049  73.1157 287.0057 15.06395506 72910","ARG_OF_PERICENTER":"73.1157","OBJECT_NAME":"STARLINK-1443","SITE":"AFETR","ECCENTRICITY":"0.00020490","TLE_LINE1":"1 45660U 20035D   21266.47075123 -.00000237  00000-0  29892-5 0  9995","TIME_SYSTEM":"UTC","MEAN_ELEMENT_THEORY":"SGP4","PERIOD":"95.592","REF_FRAME":"TEME","NORAD_CAT_ID":"45660","COUNTRY_CODE":"US","ELEMENT_SET_NO":"999","DECAY_DATE":null,"BSTAR":"0.00000298920000","EPHEMERIS_TYPE":"0","APOAPSIS":"548.646","RA_OF_ASC_NODE":"175.9886","MEAN_ANOMALY":"287.0057","INCLINATION":"53.0558","OBJECT_TYPE":"PAYLOAD","REV_AT_EPOCH":"7291","RCS_SIZE":"LARGE","MEAN_MOTION_DOT":"-0.00000237","GP_ID":"185321796","OBJECT_ID":"2020-035D","MEAN_MOTION_DDOT":"0.0000000000000"},{"OBJECT_NAME":"STARLINK-1444","ARG_OF_PERICENTER":"62.1930","TLE_LINE2":"2 45661  53.0552 174.1180 0001939  62.1930 297.9255 15.06411368 73384","ECCENTRICITY":"0.00019390","SITE":"AFETR","TLE_LINE1":"1 45661U 20035E   21266.88726011  .00002794  00000-0  20636-3 0  9994","MEAN_ELEMENT_THEORY":"SGP4","TIME_SYSTEM":"UTC","CLASSIFICATION_TYPE":"U","EPOCH":"2021-09-23T21:17:39.273504","FILE":"3125337","CENTER_NAME":"EARTH","LAUNCH_DATE":"2020-06-04","PERIAPSIS":"545.836","SEMIMAJOR_AXIS":"6925.314","MEAN_MOTION":"15.06411368","OBJECT_TYPE":"PAYLOAD","INCLINATION":"53.0552","REV_AT_EPOCH":"7338","RCS_SIZE":"LARGE","MEAN_MOTION_DOT":"0.00002794","OBJECT_ID":"2020-035E","MEAN_MOTION_DDOT":"0.0000000000000","GP_ID":"185347585","PERIOD":"95.591","COUNTRY_CODE":"US","ELEMENT_SET_NO":"999","DECAY_DATE":null,"REF_FRAME":"TEME","NORAD_CAT_ID":"45661","APOAPSIS":"548.522","BSTAR":"0.00020636000000","EPHEMERIS_TYPE":"0","MEAN_ANOMALY":"297.9255","RA_OF_ASC_NODE":"174.1180"},{"MEAN_MOTION":"15.06403257","SEMIMAJOR_AXIS":"6925.339","PERIAPSIS":"545.695","LAUNCH_DATE":"2020-06-04","CENTER_NAME":"EARTH","FILE":"3124856","CLASSIFICATION_TYPE":"U","EPOCH":"2021-09-23T04:07:57.332640","TIME_SYSTEM":"UTC","MEAN_ELEMENT_THEORY":"SGP4","TLE_LINE1":"1 45662U 20035F   21266.17219135  .00000575  00000-0  57488-4 0  9992","SITE":"AFETR","ECCENTRICITY":"0.00021790","TLE_LINE2":"2 45662  53.0553 177.3265 0002179  70.0623 290.0601 15.06403257 73274","ARG_OF_PERICENTER":"70.0623","OBJECT_NAME":"STARLINK-1445","RA_OF_ASC_NODE":"177.3265","MEAN_ANOMALY":"290.0601","BSTAR":"0.00005748800000","EPHEMERIS_TYPE":"0","APOAPSIS":"548.713","REF_FRAME":"TEME","NORAD_CAT_ID":"45662","COUNTRY_CODE":"US","DECAY_DATE":null,"ELEMENT_SET_NO":"999","PERIOD":"95.592","GP_ID":"185314105","MEAN_MOTION_DDOT":"0.0000000000000","OBJECT_ID":"2020-035F","RCS_SIZE":"LARGE","MEAN_MOTION_DOT":"0.00000575","REV_AT_EPOCH":"7327","INCLINATION":"53.0553","OBJECT_TYPE":"PAYLOAD"},{"DECAY_DATE":null,"ELEMENT_SET_NO":"999","COUNTRY_CODE":"US","NORAD_CAT_ID":"45663","REF_FRAME":"TEME","PERIOD":"95.592","MEAN_ANOMALY":"289.3096","RA_OF_ASC_NODE":"176.1178","APOAPSIS":"548.393","EPHEMERIS_TYPE":"0","BSTAR":"0.00024244000000","REV_AT_EPOCH":"7331","OBJECT_TYPE":"PAYLOAD","INCLINATION":"53.0538","OBJECT_ID":"2020-035G","MEAN_MOTION_DDOT":"0.0000000000000","GP_ID":"185314853","MEAN_MOTION_DOT":"0.00003332","RCS_SIZE":"LARGE","EPOCH":"2021-09-23T10:35:25.116288","CLASSIFICATION_TYPE":"U","FILE":"3124856","SEMIMAJOR_AXIS":"6925.326","MEAN_MOTION":"15.06407374","CENTER_NAME":"EARTH","PERIAPSIS":"545.989","LAUNCH_DATE":"2020-06-04","ECCENTRICITY":"0.00017360","SITE":"AFETR","OBJECT_NAME":"STARLINK-1446","ARG_OF_PERICENTER":"70.8081","TLE_LINE2":"2 45663  53.0538 176.1178 0001736  70.8081 289.3096 15.06407374 73310","TIME_SYSTEM":"UTC","MEAN_ELEMENT_THEORY":"SGP4","TLE_LINE1":"1 45663U 20035G   21266.44126292  .00003332  00000-0  24244-3 0  9991"},{"EPHEMERIS_TYPE":"0","BSTAR":"0.00014071000000","APOAPSIS":"548.539","RA_OF_ASC_NODE":"175.9677","MEAN_ANOMALY":"293.8552","PERIOD":"95.593","NORAD_CAT_ID":"45665","REF_FRAME":"TEME","DECAY_DATE":null,"ELEMENT_SET_NO":"999","COUNTRY_CODE":"US","MEAN_MOTION_DOT":"0.00001814","RCS_SIZE":"LARGE","GP_ID":"185313104","MEAN_MOTION_DDOT":"0.0000000000000","OBJECT_ID":"2020-035J","INCLINATION":"53.0535","OBJECT_TYPE":"PAYLOAD","REV_AT_EPOCH":"7331","PERIAPSIS":"545.938","LAUNCH_DATE":"2020-06-04","CENTER_NAME":"EARTH","MEAN_MOTION":"15.06391858","SEMIMAJOR_AXIS":"6925.374","FILE":"3124856","EPOCH":"2021-09-23T11:23:13.323264","CLASSIFICATION_TYPE":"U","TLE_LINE1":"1 45665U 20035J   21266.47445976  .00001814  00000-0  14071-3 0  9999","TIME_SYSTEM":"UTC","MEAN_ELEMENT_THEORY":"SGP4","TLE_LINE2":"2 45665  53.0535 175.9677 0001878  66.2634 293.8552 15.06391858 73316","OBJECT_NAME":"STARLINK-1448","ARG_OF_PERICENTER":"66.2634","SITE":"AFETR","ECCENTRICITY":"0.00018780"},{"MEAN_MOTION_DDOT":"0.0000000000000","OBJECT_ID":"2020-035K","GP_ID":"185313354","RCS_SIZE":"LARGE","MEAN_MOTION_DOT":"0.00007630","REV_AT_EPOCH":"7331","OBJECT_TYPE":"PAYLOAD","INCLINATION":"53.0540","MEAN_ANOMALY":"281.4563","RA_OF_ASC_NODE":"175.9351","APOAPSIS":"548.455","BSTAR":"0.00053035000000","EPHEMERIS_TYPE":"0","COUNTRY_CODE":"US","DECAY_DATE":null,"ELEMENT_SET_NO":"999","REF_FRAME":"TEME","NORAD_CAT_ID":"45666","PERIOD":"95.591","MEAN_ELEMENT_THEORY":"SGP4","TIME_SYSTEM":"UTC","TLE_LINE1":"1 45666U 20035K   21266.48087997  .00007630  00000-0  53035-3 0  9991","ECCENTRICITY":"0.00018530","SITE":"AFETR","ARG_OF_PERICENTER":"78.6634","OBJECT_NAME":"STARLINK-1449","TLE_LINE2":"2 45666  53.0540 175.9351 0001853  78.6634 281.4563 15.06413521 73319","SEMIMAJOR_AXIS":"6925.307","MEAN_MOTION":"15.06413521","CENTER_NAME":"EARTH","PERIAPSIS":"545.889","LAUNCH_DATE":"2020-06-04","CLASSIFICATION_TYPE":"U","EPOCH":"2021-09-23T11:32:28.029408","FILE":"3124856"},{"MEAN_MOTION":"15.06398812","SEMIMAJOR_AXIS":"6925.352","LAUNCH_DATE":"2020-06-04","PERIAPSIS":"545.914","CENTER_NAME":"EARTH","FILE":"3125077","EPOCH":"2021-09-23T11:28:29.745984","CLASSIFICATION_TYPE":"U","TIME_SYSTEM":"UTC","MEAN_ELEMENT_THEORY":"SGP4","TLE_LINE1":"1 45667U 20035L   21266.47812206  .00000518  00000-0  53682-4 0  9997","SITE":"AFETR","ECCENTRICITY":"0.00018820","TLE_LINE2":"2 45667  53.0537 175.9514 0001882  78.7026 281.4174 15.06398812 72968","ARG_OF_PERICENTER":"78.7026","OBJECT_NAME":"STARLINK-1450","RA_OF_ASC_NODE":"175.9514","MEAN_ANOMALY":"281.4174","EPHEMERIS_TYPE":"0","BSTAR":"0.00005368200000","APOAPSIS":"548.521","NORAD_CAT_ID":"45667","REF_FRAME":"TEME","ELEMENT_SET_NO":"999","DECAY_DATE":null,"COUNTRY_CODE":"US","PERIOD":"95.592","GP_ID":"185321794","MEAN_MOTION_DDOT":"0.0000000000000","OBJECT_ID":"2020-035L","MEAN_MOTION_DOT":"0.00000518","RCS_SIZE":"LARGE","REV_AT_EPOCH":"7296","INCLINATION":"53.0537","OBJECT_TYPE":"PAYLOAD"},{"RCS_SIZE":"LARGE","MEAN_MOTION_DOT":"0.00000054","OBJECT_ID":"2020-035M","MEAN_MOTION_DDOT":"0.0000000000000","GP_ID":"185314354","OBJECT_TYPE":"PAYLOAD","INCLINATION":"53.0547","REV_AT_EPOCH":"7332","APOAPSIS":"548.679","BSTAR":"0.00002252700000","EPHEMERIS_TYPE":"0","MEAN_ANOMALY":"292.3736","RA_OF_ASC_NODE":"176.0707","PERIOD":"95.592","COUNTRY_CODE":"US","DECAY_DATE":null,"ELEMENT_SET_NO":"999","REF_FRAME":"TEME","NORAD_CAT_ID":"45668","TLE_LINE1":"1 45668U 20035M   21266.45232508  .00000054  00000-0  22527-4 0  9996","TIME_SYSTEM":"UTC","MEAN_ELEMENT_THEORY":"SGP4","ARG_OF_PERICENTER":"67.7475","OBJECT_NAME":"STARLINK-1451","TLE_LINE2":"2 45668  53.0547 176.0707 0002094  67.7475 292.3736 15.06395020 73322","ECCENTRICITY":"0.00020940","SITE":"AFETR","CENTER_NAME":"EARTH","PERIAPSIS":"545.779","LAUNCH_DATE":"2020-06-04","SEMIMAJOR_AXIS":"6925.364","MEAN_MOTION":"15.06395020","CLASSIFICATION_TYPE":"U","EPOCH":"2021-09-23T10:51:20.886912","FILE":"3124856"},{"GP_ID":"185348334","OBJECT_ID":"2020-035N","MEAN_MOTION_DDOT":"0.0000000000000","RCS_SIZE":"LARGE","MEAN_MOTION_DOT":"-0.00000093","REV_AT_EPOCH":"7338","INCLINATION":"53.0539","OBJECT_TYPE":"PAYLOAD","RA_OF_ASC_NODE":"174.0798","MEAN_ANOMALY":"281.1597","BSTAR":"0.00001264800000","EPHEMERIS_TYPE":"0","APOAPSIS":"548.644","REF_FRAME":"TEME","NORAD_CAT_ID":"45669","COUNTRY_CODE":"US","DECAY_DATE":null,"ELEMENT_SET_NO":"999","PERIOD":"95.592","TIME_SYSTEM":"UTC","MEAN_ELEMENT_THEORY":"SGP4","TLE_LINE1":"1 45669U 20035N   21266.89463124 -.00000093  00000-0  12648-4 0  9992","SITE":"AFETR","ECCENTRICITY":"0.00020540","TLE_LINE2":"2 45669  53.0539 174.0798 0002054  78.9623 281.1597 15.06397383 73388","ARG_OF_PERICENTER":"78.9623","OBJECT_NAME":"STARLINK-1452","MEAN_MOTION":"15.06397383","SEMIMAJOR_AXIS":"6925.357","LAUNCH_DATE":"2020-06-04","PERIAPSIS":"545.799","CENTER_NAME":"EARTH","FILE":"3125337","CLASSIFICATION_TYPE":"U","EPOCH":"2021-09-23T21:28:16.139136"},{"FILE":"3125337","EPOCH":"2021-09-23T21:16:19.441632","CLASSIFICATION_TYPE":"U","LAUNCH_DATE":"2020-06-04","PERIAPSIS":"545.833","CENTER_NAME":"EARTH","MEAN_MOTION":"15.06398511","SEMIMAJOR_AXIS":"6925.353","TLE_LINE2":"2 45670  53.0526 144.1167 0002000  77.1702 282.9511 15.06398511 73697","OBJECT_NAME":"STARLINK-1453","ARG_OF_PERICENTER":"77.1702","SITE":"AFETR","ECCENTRICITY":"0.00020000","TLE_LINE1":"1 45670U 20035P   21266.88633613 -.00000552  00000-0 -18122-4 0  9999","TIME_SYSTEM":"UTC","MEAN_ELEMENT_THEORY":"SGP4","PERIOD":"95.592","NORAD_CAT_ID":"45670","REF_FRAME":"TEME","ELEMENT_SET_NO":"999","DECAY_DATE":null,"COUNTRY_CODE":"US","EPHEMERIS_TYPE":"0","BSTAR":"-0.00001812200000","APOAPSIS":"548.603","RA_OF_ASC_NODE":"144.1167","MEAN_ANOMALY":"282.9511","INCLINATION":"53.0526","OBJECT_TYPE":"PAYLOAD","REV_AT_EPOCH":"7369","MEAN_MOTION_DOT":"-0.00000552","RCS_SIZE":"LARGE","GP_ID":"185347586","OBJECT_ID":"2020-035P","MEAN_MOTION_DDOT":"0.0000000000000"}];
